[{"OBJECT_NAME":"COSMO-SKYMED 3","OBJECT_ID":"2008-054A","EPOCH":"2026-03-09T22:03:15.183936","MEAN_MOTION":15.06259488,"ECCENTRICITY":0.00143526,"INCLINATION":97.8419,"RA_OF_ASC_NODE":285.8111,"ARG_OF_PERICENTER":240.3641,"MEAN_ANOMALY":119.6157,"EPHEMERIS_TYPE":0,"CLASSIFICATION_TYPE":"U","NORAD_CAT_ID":33412,"ELEMENT_SET_NO":999,"REV_AT_EPOCH":94199,"BSTAR":0.00061875413,"MEAN_MOTION_DOT":9.042e-5,"MEAN_MOTION_DDOT":0},{"OBJECT_NAME":"STARLINK-4596","OBJECT_ID":"2022-104AN","EPOCH":"2026-03-09T17:23:00.893760","MEAN_MOTION":15.08839834,"ECCENTRICITY":0.00012814,"INCLINATION":53.2167,"RA_OF_ASC_NODE":233.7245,"ARG_OF_PERICENTER":79.3996,"MEAN_ANOMALY":280.714,"EPHEMERIS_TYPE":0,"CLASSIFICATION_TYPE":"U","NORAD_CAT_ID":53624,"ELEMENT_SET_NO":999,"REV_AT_EPOCH":19575,"BSTAR":8.155735e-6,"MEAN_MOTION_DOT":-1.58e-6,"MEAN_MOTION_DDOT":0}]
